GOES 1 (SMS-C) [-]      
1 08366U 75100A   19045.51316027  .00000008  00000-0  00000+0 0  9997
2 08366  10.9673 311.1125 0005876 335.0567 282.3665  1.00306871158338
GOES 2 [-]              
1 10061U 77048A   19045.17942885 -.00000224  00000-0  00000+0 0  9995
2 10061  12.3272 320.6665 0018756 344.4601 205.5821  0.99397637 96870
GOES 3 [-]              
1 10953U 78062A   19045.10118990 -.00000263  00000-0  00000+0 0  9990
2 10953  12.5352 324.4533 0005648 351.3403 187.9532  0.99363204101962
GOES 4 [-]              
1 11964U 80074A   19045.36074625  .00000052  00000-0  00000+0 0  9998
2 11964  13.3739 328.1866 0036257  28.2792 162.7275  0.99227470101031
GOES 5 [-]              
1 12472U 81049A   19045.62827557  .00000052  00000-0  00000+0 0  9995
2 12472  13.7654 338.6199 0005479 318.6788 300.6998  1.00317209 96091
GOES 6 [-]              
1 14050U 83041A   19045.60869427  .00000020  00000-0  00000+0 0  9998
2 14050  14.0960 343.5881 0003405 339.6406 273.5669  1.00309730189185
GOES 7 [-]              
1 17561U 87022A   19044.96780979 -.00000114  00000-0  00000+0 0  9998
2 17561  15.0317 359.6159 0008719 335.2572 241.9286  0.99889496100206
GOES 8 [-]              
1 23051U 94022A   19045.56553189  .00000037  00000-0  00000+0 0  9998
2 23051  12.0711  33.4898 0009678 287.6398 269.0076  0.98903225 97614
GOES 9 [-]              
1 23581U 95025A   19045.54129946  .00000025  00000-0  00000+0 0  9995
2 23581  11.5621  33.2262 0003162 326.4274 228.2277  0.98798267 86274
GOES 10 [-]             
1 24786U 97019A   19045.39463997 -.00000199  00000-0  00000+0 0  9991
2 24786  10.0360  38.4764 0026817 184.7102   4.2999  0.99123416 79495
GOES 11 [-]             
1 26352U 00022A   19045.47809316 -.00000261  00000-0  00000+0 0  9998
2 26352   6.1744  68.7253 0005682 222.2915 187.0126  0.99045942 68457
GOES 12 [-]             
1 26871U 01031A   19045.26657758 -.00000067  00000-0  00000+0 0  9997
2 26871   7.3926  55.8502 0011205 255.9075 307.1729  0.99138992 64166
GOES 13 [B]             
1 29155U 06018A   19045.53796866 -.00000286  00000-0  00000+0 0  9992
2 29155   0.3817 101.1203 0008267 314.1264 222.4995  1.00261480 46640
GOES 14 [S]             
1 35491U 09033A   19045.55443797 -.00000096  00000-0  00000+0 0  9995
2 35491   0.0129 120.1518 0009725 123.6195 355.8089  1.00270840 35282
GOES 15 [+]             
1 36411U 10008A   19045.56346677  .00000053  00000-0  00000+0 0  9994
2 36411   0.0608 276.7260 0003369 347.7189 314.5502  1.00264929 32807
GOES 16 [+]             
1 41866U 16071A   19045.53500264 -.00000251  00000-0  00000+0 0  9992
2 41866   0.0447 260.4967 0000613  72.9607 288.1791  1.00272029  8239
GOES-S [+]              
1 43226U 18022A   19045.63936943  .00000095  00000-0  00000+0 0  9995
2 43226   0.0266  82.0173 0003377 283.9012 231.3788  1.00271732  3568
